QIANFAN-17              
1 60395U 24140S   25331.92092979  .00000095  00000+0  12923-3 0  9998
2 60395  88.9756 300.9675 0013023 247.1733 112.8043 13.50974008 66136
QIANFAN-18              
1 60396U 24140T   25331.97440978  .00000100  00000+0  13641-3 0  9995
2 60396  88.9749 300.4965 0012576 227.0101 132.9996 13.50973991 65537
QIANFAN-19              
1 61552U 24185A   25331.93919497  .00000675  00000+0  34659-3 0  9991
2 61552  88.9819  79.6338 0006713  10.3339 349.7985 14.14273143 67576
QIANFAN-20              
1 61553U 24185B   25331.98553221  .00000559  00000+0  31584-3 0  9991
2 61553  88.9818  79.9375 0007006  49.2695 310.9097 14.08819555 67415
QIANFAN-21              
1 61554U 24185C   25331.97941869  .00000815  00000+0  35843-3 0  9997
2 61554  88.9734  78.7050 0012172  59.0082 301.2304 14.22576722 67875
QIANFAN-22              
1 61555U 24185D   25331.99309878  .00000228  00000+0  18618-3 0  9997
2 61555  88.9800  80.8585 0007754  53.5557 306.6327 13.86294519 66898
QIANFAN-23              
1 61556U 24185E   25331.93544275  .00000568  00000+0  27969-3 0  9990
2 61556  88.9811  79.4509 0007892  19.8475 340.3019 14.16270312 67655
QIANFAN-24              
1 61557U 24185F   25331.92425988  .00000768  00000+0  32973-3 0  9992
2 61557  88.9792  78.8814 0008941 359.6402   0.4782 14.23779525 67915
